IRIDIUM 39              
1 25042U 97069D   25242.07637810  .00000904  00000+0  23095-3 0  9995
2 25042  86.3980 179.4768 0019964  63.0818 297.2423 14.49297344459662
IRIDIUM 38              
1 25043U 97069E   25242.13064794  .00000644  00000+0  20598-3 0  9994
2 25043  86.3992 202.0559 0001857 141.3790 218.7541 14.38170300456585
IRIDIUM 42              
1 25077U 97077A   25242.15806193  .00000583  00000+0  19246-3 0  9999
2 25077  86.3983 208.2999 0001660 101.9839 258.1544 14.36401471451812
IRIDIUM 44              
1 25078U 97077B   25241.91287460  .00000674  00000+0  20663-3 0  9999
2 25078  86.4015 190.1513 0003607 113.1433 247.0147 14.40294675454314
IRIDIUM 45              
1 25104U 97082A   25242.08198142  .00025260  00000+0  84133-3 0  9992
2 25104  86.3609  11.9382 0112419  54.9599 306.2131 15.24995496463293
IRIDIUM 24              
1 25105U 97082B   25241.99905717  .00000707  00000+0  20885-3 0  9999
2 25105  86.3878  48.9668 0011059 183.6236 176.4887 14.42158314453850
IRIDIUM 51              
1 25262U 98018A   25241.88462665  .00047133  00000+0  90361-3 0  9991
2 25262  86.3839  19.2005 0076843 326.3749  33.2642 15.44558621458384
IRIDIUM 57              
1 25273U 98019B   25242.10902138  .00000391  00000+0  12820-3 0  9993
2 25273  86.3945 114.2958 0002076  89.3396 270.8039 14.35935044435390
